{"fetched_at":"2026-03-29T16:36:15Z","count":15609,"tles":[{"name":"STARLINK-32943","line1":"1 63023U 25032U   26087.72842300  .00025852  00000+0  94489-3 0  9993","line2":"2 63023  43.0002 228.3668 0001166 256.4791 103.5931 15.27607167 63539","category":"Starlink"}]}