{
  "norad_id": 63023,
  "name": "STARLINK-32943",
  "history": [
    {
      "epoch": "2026-03-28T17:28:55.747200",
      "apogee_km": 483.76802873193174,
      "perigee_km": 482.1674702159753,
      "latitude_deg": -30.819319567546216,
      "longitude_deg": -167.7713919999078,
      "semi_major_axis_km": 6861.104749473953,
      "eccentricity": 0.00011664,
      "inclination_deg": 43.0002,
      "raan_deg": 228.3668,
      "arg_perigee_deg": 256.4791,
      "mean_anomaly_deg": 103.5931,
      "mean_motion_rev_day": 15.27607167
    }
  ]
}